#cP2024  2  4 18  0  0.00000000     577 d+D   IGS20 EXT AIUB
## 2300  64800.00000000   300.00000000 60344 0.7500000000000
+   77   G01G02G03G05G06G07G08G09G10G11G12G13G14G15G16G17G18
+        G19G20G21G22G23G24G25G26G27G28G29G30G31G32R01R02R03
+        R04R05R07R08R09R11R12R13R14R15R16R17R18R19R20R21R22
+        R24E02E03E04E05E07E08E09E10E11E12E13E14E15E18E19E21
+        E24E25E26E27E30E31E33E34E36  0  0  0  0  0  0  0  0
++         6  7  6  7  6  7  6  6  6  7  7  7  6  7  7  7  7
++         7  7  7  7  6  6  5  6  6  6  7  6  7  5  9  8  8
++         8  8  8  8  7  6  7  7  6  6  7  9  7  9  9  8  6
++         8  5  8  8  7  8  8  8  7  6  7  7  6  7  7  7  6
++         6  5  7  5  6  6  7  7  6  0  0  0  0  0  0  0  0
%c M  cc GPS ccc cccc cccc cccc cccc ccccc ccccc ccccc ccccc
%c cc cc ccc ccc cccc cccc cccc cccc ccccc ccccc ccccc ccccc
%f  1.2500000  1.025000000  0.00000000000  0.000000000000000
%f  0.0000000  0.000000000  0.00000000000  0.000000000000000
%i    0    0    0    0      0      0      0      0         0
%i    0    0    0    0      0      0      0      0         0
/* Center for Orbit Determination in Europe (CODE)          
/* Ultra-rapid GRE orbits starting year-day 24035 18 hour   
/* Observed/predicted: 24/24 hours (data used up to 036R)   
/* PCV:IGS20      OL/AL:FES2014b NONE     YN ORB:CoN CLK:BRD
*  2024  2  6  6 20  0.00000000
PG01  -9867.712865  21414.003350 -12234.757262    168.475358               P   P
PG02 -14580.766469  21730.505697  -3173.943895   -489.767254               P   P
PG03  -7552.275024  13204.458987 -21903.483143    175.122680               P   P
PG05  19467.929582  -7654.807025  16245.978007   -160.746307               P   P
PG06  17120.870063   1423.617849 -20215.573122    417.871485               P   P
PG07   2593.133474  17857.730394  19822.308443    -55.237471               P   P
PG08  -8528.812417  16446.323693  18775.144928   -165.660507               P   P
PG09   7214.089024  25495.072704  -1400.623589     82.866001               P   P
PG10 -23041.927408 -11035.235474   8059.148912    -72.205004               P   P
PG11  21655.272788  -8700.665966 -12611.403168   -566.210329               P   P
PG12   8902.768972 -13001.225860 -21659.852919   -475.224444               P   P
PG13  13738.164373  -6992.086219  21398.921710    622.926106               P   P
PG14  20304.655176  13483.755094  10798.294312    318.356206               P   P
PG15   6672.172586 -17520.833543  18245.954585    124.808342               P   P
PG16 -23905.469659    619.524613  11703.217059   -368.717171               P   P
PG17  12491.317325  20331.498080 -11074.609630    717.833648               P   P
PG18  -2780.173033 -16845.806834  20308.639158   -549.331882               P   P
PG19  15075.427923  12478.798342 -18308.658379    436.778394               P   P
PG20  26050.118398  -1623.685520   4478.219816    388.552473               P   P
PG21 -17136.953889  19525.194733   1945.752232    135.922346               P   P
PG22  23767.062582  10936.269791   3972.098320     35.842791               P   P
PG23 -13329.619607 -14910.316452  17595.000607    150.307893               P   P
PG24  14782.326670 -21707.407979  -2338.399614   -427.026244               P   P
PG25  -3941.534508 -16252.617098 -21025.344314    487.713253               P   P
PG26 -26511.396145  -3457.207674   1023.556235    193.124735               P   P
PG27 -14740.642329   3085.527736  21616.993568     -1.524361               P   P
PG28 -15829.934622  -4167.504588 -20935.996957   -121.830749               P   P
PG29  -3825.167087 -26101.706794  -2621.972231   -607.488914               P   P
PG30  12205.909461  10116.384331  21443.396784   -436.190270               P   P
PG31 -20796.486618   4557.120856 -16338.482299   -227.671042               P   P
PG32 -15151.674818 -17072.975286 -13553.058994   -610.028765               P   P
PR01 -18456.897906 -15075.442326  -9079.273389     76.383352               P   P
PR02 -13757.834221  -1351.121882 -21405.515022    -22.451393               P   P
PR03  -1705.661579  13850.081318 -21287.184591     93.981624               P   P
PR04  10898.392336  20977.143621  -9530.317513    222.248437               P   P
PR05  17587.272091  16922.907866   7384.220671    126.494264               P   P
PR07   1000.086194 -14530.209624  20999.894038     75.205980               P   P
PR08 -11117.483091 -20984.129651   9425.324506    -74.317639               P   P
PR09  24769.684155  -5803.285633  -2356.611133    168.478741               P   P
PR11  -2178.281122 -10734.287860 -23031.411192     35.228742               P   P
PR12 -20547.227030  -3813.709824 -14621.834377     36.423917               P   P
PR13 -25145.267512   4307.332509    -44.019282    -44.079476               P   P
PR14 -14717.244556  11150.083026  17595.064556     26.012771               P   P
PR15   3773.898632  10576.613697  22914.036569     82.468614               P   P
PR16  20364.418359   3758.010750  14917.248523     23.085852               P   P
PR17 -10680.582030  22956.518393   3252.182704     58.846212               P   P
PR18  -2607.553846  21791.600706 -12932.116146    125.899164               P   P
PR19   5754.837871  11319.020770 -22118.203491   -264.742581               P   P
PR20  13737.670168  -9972.283501 -19046.468665   -107.835047               P   P
PR21  10717.967171 -22950.901717  -2918.042281    -74.764190               P   P
PR22   2348.206440 -21378.304561  13759.064866    106.762714               P   P
PR24 -13731.387220  10874.196129  18567.617050    -42.757115               P   P
PE02  -8437.615514  14972.796451  24090.592432    101.108848               P   P
PE03  -3503.612129  25425.651774 -14754.150278    -91.965334               P   P
PE04 -10265.632319 -27557.870997  -3375.373756   -320.774907               P   P
PE05 -15042.385042   8498.614273 -24030.254367   4717.378462               P   P
PE07  17822.293646  13930.532085  19100.070085   -102.297231               P   P
PE08   9859.732352  27779.725894   2735.290340   -219.508672               P   P
PE09 -17698.502075 -14067.499210 -19098.396672   -326.031724               P   P
PE10 -11070.463482 -11557.602921  24899.796191   -599.788715               P   P
PE11 -18728.895766  -1930.416729  22830.518011   3260.747148               P   P
PE12  -2648.826969 -18529.246515  22939.481597   -894.364242               P   P
PE13  18290.609179   2493.469725 -23133.145536    -20.092548               P   P
PE14  12387.994152  29007.862575  -6323.795150 999999.999999               P   P
PE15   2122.317651  18787.115803 -22760.538938    -84.245854               P   P
PE18  -7219.539265 -22529.658518   2592.393126 999999.999999               P   P
PE19   5113.237143 -24053.644766  16488.010058   -669.059485               P   P
PE21  25108.007759  -4289.333998 -15080.193453   -577.599715               P   P
PE24 -27730.812857  -9777.330966  -3553.445507   -582.781709               P   P
PE25 -25346.983719   4000.511909  14761.409887      0.504769               P   P
PE26  23484.257880 -15406.384535  -9343.086319    360.670414               P   P
PE27  27879.540998   9409.728461   3137.473190   -267.729042               P   P
PE30  13871.994404  17513.681673  19390.298711   -884.275475               P   P
PE31 -14194.362603 -17402.414806 -19289.582853    -15.365718               P   P
PE33  15442.472616 -23764.994870   8550.262513      7.149592               P   P
PE34 -15003.156178  23855.167729  -9058.403817    -93.089282               P   P
PE36 -23496.738358  14960.123666  10001.303762   -182.048870               P   P
EOF
